[{"OBJECT_NAME":"OBJECT A","OBJECT_ID":"2023-069A","EPOCH":"2026-03-09T23:23:38.832000","MEAN_MOTION":15.439714,"ECCENTRICITY":0.00293771,"INCLINATION":40.9954,"RA_OF_ASC_NODE":47.9643,"ARG_OF_PERICENTER":310.3432,"MEAN_ANOMALY":49.4829,"EPHEMERIS_TYPE":0,"CLASSIFICATION_TYPE":"U","NORAD_CAT_ID":56731,"ELEMENT_SET_NO":999,"REV_AT_EPOCH":15774,"BSTAR":0.00033298107,"MEAN_MOTION_DOT":0.00015557,"MEAN_MOTION_DDOT":0},{"OBJECT_NAME":"GLOBAL-31","OBJECT_ID":"2025-033B","EPOCH":"2026-03-09T21:37:08.338080","MEAN_MOTION":15.38684855,"ECCENTRICITY":0.0009261,"INCLINATION":59.0009,"RA_OF_ASC_NODE":357.4522,"ARG_OF_PERICENTER":37.0893,"MEAN_ANOMALY":323.0822,"EPHEMERIS_TYPE":0,"CLASSIFICATION_TYPE":"U","NORAD_CAT_ID":63027,"ELEMENT_SET_NO":999,"REV_AT_EPOCH":5904,"BSTAR":0.00050601381,"MEAN_MOTION_DOT":0.00019268,"MEAN_MOTION_DDOT":0}]
